IRIDIUM 39              
1 25042U 97069D   25099.90837841  .00001711  00000+0  44440-3 0  9997
2 25042  86.3905 240.3869 0018340 168.7066 191.4553 14.49092897439331
IRIDIUM 38              
1 25043U 97069E   25099.84024381  .00001036  00000+0  33620-3 0  9996
2 25043  86.3910 261.9104 0001699  32.7254 327.4049 14.38029675436135
IRIDIUM 42              
1 25077U 97077A   25099.90197733  .00000942  00000+0  31611-3 0  9994
2 25077  86.3907 267.9758 0001956  71.2140 288.9269 14.36271574431390
IRIDIUM 44              
1 25078U 97077B   25099.90173475  .00001035  00000+0  32169-3 0  9995
2 25078  86.3930 250.0645 0000710 154.4992 205.6243 14.40161289433870
IRIDIUM 45              
1 25104U 97082A   25099.89633601  .00027362  00000+0  10594-2 0  9999
2 25104  86.3550  80.9822 0120894 225.7939 133.3326 15.19403798441660
IRIDIUM 24              
1 25105U 97082B   25099.75417371  .00001074  00000+0  32151-3 0  9995
2 25105  86.3855 109.3371 0009536 312.4851  47.5543 14.42002760433353
IRIDIUM 51              
1 25262U 98018A   25100.00316017  .00044370  00000+0  11418-2 0  9993
2 25262  86.3805  89.4576 0099147 149.4659 211.2417 15.34077286436774
IRIDIUM 57              
1 25273U 98019B   25099.94707010  .00000654  00000+0  21935-3 0  9996
2 25273  86.4024 173.8358 0002202  93.5407 266.6042 14.35833898414999
